ONEWEB-0593             
1 54659U 22166T   24011.56788362  .00000044  00000+0  75929-4 0  9992
2 54659  87.9227  60.6732 0001553  96.9531 263.1780 13.21824728 54281
ONEWEB-0594             
1 54660U 22166U   24011.58681073 -.00000015  00000+0 -66727-4 0  9993
2 54660  87.9225  60.6645 0001946 103.0181 257.1170 13.21825972 54302
ONEWEB-0595             
1 54661U 22166V   24011.56473298  .00000017  00000+0  98005-5 0  9995
2 54661  87.9221  60.6601 0002112  92.6533 267.4843 13.21825910 54270
ONEWEB-0596             
1 54662U 22166W   24011.61362214  .00000044  00000+0  76187-4 0  9993
2 54662  87.9225  60.6525 0001545  88.2591 271.8720 13.21824532 54287
ONEWEB-0597             
1 54663U 22166X   24011.59469400 -.00000010  00000+0 -56228-4 0  9995
2 54663  87.9223  60.6576 0001419 102.3564 257.7729 13.21825723 54285
ONEWEB-0600             
1 54664U 22166Y   24011.50164519 -.00000123  00000+0 -32880-3 0  9992
2 54664  87.9218  60.7255 0001598 105.1907 254.9404 13.21826656 54246
ONEWEB-0601             
1 54665U 22166Z   24011.56945265  .00000066  00000+0  12728-3 0  9997
2 54665  87.9226  60.6645 0001236  93.7394 266.3881 13.21829583 54449
ONEWEB-0602             
1 54666U 22166AA  24011.61046262  .00000090  00000+0  18736-3 0  9995
2 54666  87.9224  60.6617 0001447  99.5544 260.5753 13.21825550 54299
